     2              NAVIGATION DATA                         RINEX VERSION / TYPE
TBIN                XXXXXXXXXXXX        96-11-27 15:47:30   PGM / RUN BY / DATE 
TOPCON-GEOCOMP RINEX Formatter-Version: 96.06.XX            COMMENT             
                                                            END OF HEADER       
 2 96 10 23  4  0  0.0-3.014490939677e-04-3.296918293927e-12 0.000000000000e+00 
    0.000000000000e+00-3.331250000000e+01 5.293791936254e-09 2.944803621428e+00 
   -1.825392246246e-06 1.606342056766e-02 3.674998879433e-06 5.153674425125e+03 
    2.736000000000e+05-2.980232238770e-08-1.877477541436e+00-1.937150955200e-07 
    9.442734060119e-01 3.014062500000e+02-2.404049596601e+00-8.435708523977e-09 
   -2.214377952016e-10 1.000000000000e+00 8.760000000000e+02 0.000000000000e+00
    3.200000000000e+01 0.000000000000e+00 0.000000000000e+00 0.000000000000e+00 
    2.722500000000e+05 0.000000000000e+00 0.000000000000e+00 0.000000000000e+00 
 6 96 10 23  4  0  0.0 2.903863787651e-06 2.273736754432e-13 0.000000000000e+00 
    0.000000000000e+00-2.481250000000e+01 4.338752155014e-09-2.275978309004e-01 
   -1.303851604462e-06 6.647678208537e-03 1.110322773457e-05 5.153678895950e+03 
    2.736000000000e+05 2.607703208923e-08-7.677704291773e-01 6.519258022308e-08 
    9.609572742648e-01 1.652812500000e+02-2.698505280925e+00-8.059621429869e-09 
   -2.025084352892e-10 1.000000000000e+00 8.760000000000e+02 0.000000000000e+00
    3.200000000000e+01 0.000000000000e+00 0.000000000000e+00 0.000000000000e+00 
    2.722500000000e+05 0.000000000000e+00 0.000000000000e+00 0.000000000000e+00 
 9 96 10 23  4  0  0.0-1.472933217883e-05-1.250555214938e-12 0.000000000000e+00 
    0.000000000000e+00 7.950000000000e+01 5.029138055215e-09-2.407301188043e-01 
    4.146248102188e-06 5.384361720644e-03 7.703900337219e-06 5.153686271667e+03 
    2.736000000000e+05 4.470348358154e-08-2.890148710866e+00-1.862645149231e-08 
    9.456896789482e-01 2.231562500000e+02 7.185457300853e-02-8.464638300447e-09 
    4.471614832135e-10 1.000000000000e+00 8.760000000000e+02 0.000000000000e+00
    3.200000000000e+01 0.000000000000e+00 0.000000000000e+00 0.000000000000e+00 
    2.722500000000e+05 0.000000000000e+00 0.000000000000e+00 0.000000000000e+00 
10 96 10 23  4  0  0.0 2.567945048213e-04 3.808509063674e-11 0.000000000000e+00 
    0.000000000000e+00-5.021875000000e+01 4.940920094869e-09 3.086404820989e+00 
   -2.631917595863e-06 1.606110832654e-03 4.047527909279e-06 5.153648260117e+03 
    2.736000000000e+05 8.381903171539e-08 1.299678736973e+00 3.166496753693e-08 
    9.607192706596e-01 3.038125000000e+02-3.394623487923e-01-8.461781038574e-09 
   -2.785830326729e-10 1.000000000000e+00 8.760000000000e+02 0.000000000000e+00
    3.200000000000e+01 0.000000000000e+00 0.000000000000e+00 0.000000000000e+00 
    2.722500000000e+05 0.000000000000e+00 0.000000000000e+00 0.000000000000e+00 
16 96 10 23  4  0  0.0 3.028893843293e-05 1.250555214938e-12 0.000000000000e+00 
    0.000000000000e+00-5.778125000000e+01 4.880560437789e-09-2.216030085382e+00 
   -2.976506948471e-06 1.827664906159e-03 4.587695002556e-06 5.151587812424e+03 
    2.736000000000e+05 1.490116119385e-08 1.348935661225e+00 6.146728992462e-08 
    9.626195280986e-01 2.933437500000e+02-6.611797017028e-01-8.491067972778e-09 
   -2.960837616486e-10 1.000000000000e+00 8.760000000000e+02 0.000000000000e+00
    3.200000000000e+01 0.000000000000e+00 0.000000000000e+00 0.000000000000e+00 
    2.722500000000e+05 0.000000000000e+00 0.000000000000e+00 0.000000000000e+00 
17 96 10 23  4  0  0.0-1.290459185839e-04-1.136868377216e-12 0.000000000000e+00 
    0.000000000000e+00 5.540625000000e+01 4.266963450441e-09-3.753666170120e-01 
    2.801418304443e-06 9.085758589208e-03 7.141381502151e-06 5.153659410477e+03 
    2.736000000000e+05-7.078051567078e-08 3.408626144789e-01-1.378357410431e-07 
    9.788159461959e-01 2.537812500000e+02 2.377921010732e+00-8.143910655139e-09 
    3.864446684002e-10 1.000000000000e+00 8.760000000000e+02 0.000000000000e+00
    3.200000000000e+01 0.000000000000e+00 0.000000000000e+00 0.000000000000e+00 
    2.722500000000e+05 0.000000000000e+00 0.000000000000e+00 0.000000000000e+00 
23 96 10 23  4  0  0.0 5.292240530252e-06 5.684341886081e-13 0.000000000000e+00 
    0.000000000000e+00-5.690625000000e+01 4.650908014701e-09-3.129511835129e+00 
   -2.946704626083e-06 1.110128848813e-02 4.731118679047e-06 5.153715665817e+03 
    2.736000000000e+05 1.862645149231e-08 1.342447130929e+00-1.806765794754e-07 
    9.632807860884e-01 2.872187500000e+02-2.190054618760e+00-8.156768333570e-09 
   -2.303667385565e-10 1.000000000000e+00 8.760000000000e+02 0.000000000000e+00
    3.200000000000e+01 0.000000000000e+00 0.000000000000e+00 0.000000000000e+00 
    2.722500000000e+05 0.000000000000e+00 0.000000000000e+00 0.000000000000e+00 
24 96 10 23  4  0  0.0 3.385427407920e-04 8.185452315956e-12 0.000000000000e+00 
    0.000000000000e+00 6.243750000000e+01 4.298036173316e-09-5.206629954979e-01 
    3.295019268990e-06 7.192371063866e-03 7.899478077888e-06 5.153734880447e+03 
    2.736000000000e+05-8.381903171539e-08 2.670863142456e-01 4.284083843231e-08 
    9.827407301132e-01 2.408437500000e+02-1.970793937512e+00-8.151053809823e-09 
    3.932306653499e-10 1.000000000000e+00 8.760000000000e+02 0.000000000000e+00
    3.200000000000e+01 0.000000000000e+00 0.000000000000e+00 0.000000000000e+00 
    2.722500000000e+05 0.000000000000e+00 0.000000000000e+00 0.000000000000e+00 
26 96 10 23  4  0  0.0-5.719531327486e-05-6.139089236967e-12 0.000000000000e+00 
    0.000000000000e+00-4.337500000000e+01 4.345180994230e-09 1.718956762409e+00 
   -2.061948180199e-06 9.283557767048e-03 1.163966953754e-05 5.153624591827e+03 
    2.736000000000e+05 6.146728992462e-08 2.352736150390e+00 1.303851604462e-07 
    9.574285081232e-01 1.515937500000e+02-5.097060872587e-01-7.832469110920e-09 
   -2.807259790781e-10 1.000000000000e+00 8.760000000000e+02 0.000000000000e+00
    3.200000000000e+01 0.000000000000e+00 0.000000000000e+00 0.000000000000e+00 
    2.722500000000e+05 0.000000000000e+00 0.000000000000e+00 0.000000000000e+00 
27 96 10 23  2 51 44.0 5.827285349369e-06 1.250555214938e-12 0.000000000000e+00 
    0.000000000000e+00 8.396875000000e+01 5.051638992469e-09-1.823986034031e+00 
    4.036352038383e-06 1.185749389697e-02 8.139759302139e-06 5.153618265152e+03 
    2.695040000000e+05-5.029141902924e-08-2.904814410483e+00-1.918524503708e-07 
    9.427227830679e-01 2.145625000000e+02 2.886074574716e+00-8.441065889990e-09 
    6.650277010731e-10 1.000000000000e+00 8.760000000000e+02 0.000000000000e+00
    3.200000000000e+01 0.000000000000e+00 0.000000000000e+00 0.000000000000e+00 
    2.722500000000e+05 0.000000000000e+00 0.000000000000e+00 0.000000000000e+00 
28 96 10 23  4  0  0.0 1.135049387813e-04 2.273736754432e-12 0.000000000000e+00 
    0.000000000000e+00-2.046875000000e+01 4.173030966347e-09-8.685723927380e-01 
   -1.108273863792e-06 2.426146646030e-03 1.125782728195e-05 5.153780958176e+03 
    2.736000000000e+05 1.490116119385e-08-7.880176059935e-01 1.676380634308e-08 
    9.718200407998e-01 1.657187500000e+02-3.076602158041e+00-7.870684988479e-09 
   -1.507205638307e-10 1.000000000000e+00 8.760000000000e+02 0.000000000000e+00
    4.000000000000e+00 0.000000000000e+00 0.000000000000e+00 0.000000000000e+00 
    2.722500000000e+05 0.000000000000e+00 0.000000000000e+00 0.000000000000e+00 
 2 96 10 23  2 51 44.0-3.014304675162e-04-3.296918293927e-12 0.000000000000e+00 
    0.000000000000e+00-3.331250000000e+01 5.293791936254e-09 2.347365260248e+00 
   -1.825392246246e-06 1.606341497973e-02 3.674998879433e-06 5.153674421310e+03 
    2.695040000000e+05-2.980232238770e-08-1.877443013643e+00-1.937150955200e-07 
    9.442743188728e-01 3.014062500000e+02-2.404050313431e+00-8.435708523977e-09 
   -2.214377952016e-10 1.000000000000e+00 8.760000000000e+02 0.000000000000e+00
    3.200000000000e+01 0.000000000000e+00 0.000000000000e+00 0.000000000000e+00 
    2.725800000000e+05 0.000000000000e+00 0.000000000000e+00 0.000000000000e+00 
 2 96 10 23  4 51 44.0-3.014542162418e-04-3.296918293927e-12 0.000000000000e+00 
    0.000000000000e+00-3.228125000000e+01 5.295220567191e-09-2.885619918795e+00 
   -1.883134245872e-06 1.606314838864e-02 3.643333911896e-06 5.153675016403e+03 
    2.767040000000e+05 2.067536115646e-07-1.877504650771e+00-1.303851604462e-07 
    9.442722737133e-01 2.985000000000e+02-2.404063579172e+00-8.531426796742e-09 
   -5.535944880039e-11 1.000000000000e+00 8.760000000000e+02 0.000000000000e+00
    3.200000000000e+01 0.000000000000e+00 0.000000000000e+00 0.000000000000e+00 
    2.736000000000e+05 0.000000000000e+00 0.000000000000e+00 0.000000000000e+00 
 6 96 10 23  6  0  0.0 2.905726432800e-06 2.273736754432e-13 0.000000000000e+00 
    0.000000000000e+00-3.871875000000e+01 4.429113061766e-09 8.226185721997e-01 
   -1.834705471992e-06 6.645649555139e-03 1.146271824837e-05 5.153675067902e+03 
    2.808000000000e+05-3.352761268616e-08-7.678282612548e-01 7.823109626770e-08 
    9.609558069580e-01 1.587812500000e+02-2.698543400181e+00-8.037834808083e-09 
   -2.314382117591e-10 1.000000000000e+00 8.760000000000e+02 0.000000000000e+00
    3.200000000000e+01 0.000000000000e+00 0.000000000000e+00 0.000000000000e+00 
    2.736000000000e+05 0.000000000000e+00 0.000000000000e+00 0.000000000000e+00 
